{
  "type": "FeatureCollection",
  "features": [
    {
      "type": "Feature",
      "properties": {
        "norad_id": 66382,
        "name": "STARLINK-35639",
        "group": "last-30-days",
        "lat": 16.43504398956974,
        "lon": -53.118126559175955,
        "alt_km": 445.5429359116806,
        "timestamp": "2025-12-06T11:28:09.784013+00:00",
        "meta_object_name": "STARLINK-35639",
        "meta_object_id": "2025-257C",
        "meta_epoch": "2025-12-05T22:00:03.000096",
        "meta_mean_motion": 15.39575577,
        "meta_eccentricity": 8.956e-05,
        "meta_inclination": 53.161,
        "meta_ra_of_asc_node": 296.7506,
        "meta_arg_of_pericenter": 95.7459,
        "meta_mean_anomaly": 52.8601,
        "meta_ephemeris_type": 0,
        "meta_classification_type": "U",
        "meta_norad_cat_id": 66382,
        "meta_element_set_no": 999,
        "meta_rev_at_epoch": 540,
        "meta_bstar": 0.0015689293,
        "meta_mean_motion_dot": 0.00062782,
        "meta_mean_motion_ddot": 0,
        "tle_line1": "1 66382U 25257C   25339.91670139  .00062782  00000+0  15689-2 0  9999",
        "tle_line2": "2 66382  53.1610 296.7506 0000895  95.7459  52.8601 15.39575577  5404"
      },
      "geometry": {
        "type": "Point",
        "coordinates": [
          -53.118126559175955,
          16.43504398956974
        ]
      }
    },
    {
      "type": "Feature",
      "properties": {
        "norad_id": 66383,
        "name": "STARLINK-35690",
        "group": "last-30-days",
        "lat": 35.484379403387074,
        "lon": -33.64022852884124,
        "alt_km": 442.2489752445608,
        "timestamp": "2025-12-06T11:28:09.784024+00:00",
        "meta_object_name": "STARLINK-35690",
        "meta_object_id": "2025-257D",
        "meta_epoch": "2025-12-05T22:00:03.000096",
        "meta_mean_motion": 15.39700349,
        "meta_eccentricity": 0.00013847,
        "meta_inclination": 53.1613,
        "meta_ra_of_asc_node": 296.6992,
        "meta_arg_of_pericenter": 83.9705,
        "meta_mean_anomaly": 90.4021,
        "meta_ephemeris_type": 0,
        "meta_classification_type": "U",
        "meta_norad_cat_id": 66383,
        "meta_element_set_no": 999,
        "meta_rev_at_epoch": 540,
        "meta_bstar": -0.0037989661,
        "meta_mean_motion_dot": -0.00149805,
        "meta_mean_motion_ddot": 0,
        "tle_line1": "1 66383U 25257D   25339.91670139 -.00149805  00000+0 -37990-2 0  9993",
        "tle_line2": "2 66383  53.1613 296.6992 0001384  83.9705  90.4021 15.39700349  5404"
      },
      "geometry": {
        "type": "Point",
        "coordinates": [
          -33.64022852884124,
          35.484379403387074
        ]
      }
    },
    {
      "type": "Feature",
      "properties": {
        "norad_id": 66384,
        "name": "STARLINK-35662",
        "group": "last-30-days",
        "lat": 36.694218263484494,
        "lon": -31.984045271992517,
        "alt_km": 442.06791604938735,
        "timestamp": "2025-12-06T11:28:09.784035+00:00",
        "meta_object_name": "STARLINK-35662",
        "meta_object_id": "2025-257E",
        "meta_epoch": "2025-12-05T22:00:03.000096",
        "meta_mean_motion": 15.39567641,
        "meta_eccentricity": 9.489e-05,
        "meta_inclination": 53.1613,
        "meta_ra_of_asc_node": 296.6965,
        "meta_arg_of_pericenter": 101.0011,
        "meta_mean_anomaly": 75.1933,
        "meta_ephemeris_type": 0,
        "meta_classification_type": "U",
        "meta_norad_cat_id": 66384,
        "meta_element_set_no": 999,
        "meta_rev_at_epoch": 540,
        "meta_bstar": 0.0016820421,
        "meta_mean_motion_dot": 0.0006736,
        "meta_mean_motion_ddot": 0,
        "tle_line1": "1 66384U 25257E   25339.91670139  .00067360  00000+0  16820-2 0  9996",
        "tle_line2": "2 66384  53.1613 296.6965 0000948 101.0011  75.1933 15.39567641  5400"
      },
      "geometry": {
        "type": "Point",
        "coordinates": [
          -31.984045271992517,
          36.694218263484494
        ]
      }
    },
    {
      "type": "Feature",
      "properties": {
        "norad_id": 66385,
        "name": "STARLINK-35659",
        "group": "last-30-days",
        "lat": 17.889985261564803,
        "lon": -51.8929555239228,
        "alt_km": 445.29057123483017,
        "timestamp": "2025-12-06T11:28:09.784046+00:00",
        "meta_object_name": "STARLINK-35659",
        "meta_object_id": "2025-257F",
        "meta_epoch": "2025-12-05T22:00:03.000096",
        "meta_mean_motion": 15.39571571,
        "meta_eccentricity": 0.00010088,
        "meta_inclination": 53.1612,
        "meta_ra_of_asc_node": 296.7476,
        "meta_arg_of_pericenter": 100.9141,
        "meta_mean_anomaly": 49.5497,
        "meta_ephemeris_type": 0,
        "meta_classification_type": "U",
        "meta_norad_cat_id": 66385,
        "meta_element_set_no": 999,
        "meta_rev_at_epoch": 540,
        "meta_bstar": 0.0019985666,
        "meta_mean_motion_dot": 0.00080259,
        "meta_mean_motion_ddot": 0,
        "tle_line1": "1 66385U 25257F   25339.91670139  .00080259  00000+0  19986-2 0  9995",
        "tle_line2": "2 66385  53.1612 296.7476 0001008 100.9141  49.5497 15.39571571  5405"
      },
      "geometry": {
        "type": "Point",
        "coordinates": [
          -51.8929555239228,
          17.889985261564803
        ]
      }
    },
    {
      "type": "Feature",
      "properties": {
        "norad_id": 66386,
        "name": "STARLINK-35651",
        "group": "last-30-days",
        "lat": 49.677086627736536,
        "lon": -3.9553030107643927,
        "alt_km": 439.65272413931507,
        "timestamp": "2025-12-06T11:28:09.784056+00:00",
        "meta_object_name": "STARLINK-35651",
        "meta_object_id": "2025-257G",
        "meta_epoch": "2025-12-05T22:00:03.000096",
        "meta_mean_motion": 15.39536429,
        "meta_eccentricity": 0.00013869,
        "meta_inclination": 53.161,
        "meta_ra_of_asc_node": 296.6481,
        "meta_arg_of_pericenter": 80.1032,
        "meta_mean_anomaly": 120.1383,
        "meta_ephemeris_type": 0,
        "meta_classification_type": "U",
        "meta_norad_cat_id": 66386,
        "meta_element_set_no": 999,
        "meta_rev_at_epoch": 540,
        "meta_bstar": 0.001666773,
        "meta_mean_motion_dot": 0.00066671,
        "meta_mean_motion_ddot": 0,
        "tle_line1": "1 66386U 25257G   25339.91670139  .00066671  00000+0  16668-2 0  9992",
        "tle_line2": "2 66386  53.1610 296.6481 0001386  80.1032 120.1383 15.39536429  5409"
      },
      "geometry": {
        "type": "Point",
        "coordinates": [
          -3.9553030107643927,
          49.677086627736536
        ]
      }
    },
    {
      "type": "Feature",
      "properties": {
        "norad_id": 66387,
        "name": "STARLINK-35661",
        "group": "last-30-days",
        "lat": 50.326246536340754,
        "lon": -1.3322665067246486,
        "alt_km": 439.7640643164659,
        "timestamp": "2025-12-06T11:28:09.784069+00:00",
        "meta_object_name": "STARLINK-35661",
        "meta_object_id": "2025-257H",
        "meta_epoch": "2025-12-05T22:00:03.000096",
        "meta_mean_motion": 15.39556415,
        "meta_eccentricity": 0.00010643,
        "meta_inclination": 53.1611,
        "meta_ra_of_asc_node": 296.6446,
        "meta_arg_of_pericenter": 85.0548,
        "meta_mean_anomaly": 116.9646,
        "meta_ephemeris_type": 0,
        "meta_classification_type": "U",
        "meta_norad_cat_id": 66387,
        "meta_element_set_no": 999,
        "meta_rev_at_epoch": 540,
        "meta_bstar": 0.0013922194,
        "meta_mean_motion_dot": 0.00055578,
        "meta_mean_motion_ddot": 0,
        "tle_line1": "1 66387U 25257H   25339.91670139  .00055578  00000+0  13922-2 0  9997",
        "tle_line2": "2 66387  53.1611 296.6446 0001064  85.0548 116.9646 15.39556415  5403"
      },
      "geometry": {
        "type": "Point",
        "coordinates": [
          -1.3322665067246486,
          50.326246536340754
        ]
      }
    },
    {
      "type": "Feature",
      "properties": {
        "norad_id": 66388,
        "name": "STARLINK-35647",
        "group": "last-30-days",
        "lat": 52.38959982493154,
        "lon": 37.263422847328656,
        "alt_km": 439.0116910015968,
        "timestamp": "2025-12-06T11:28:09.784082+00:00",
        "meta_object_name": "STARLINK-35647",
        "meta_object_id": "2025-257J",
        "meta_epoch": "2025-12-05T22:00:03.000096",
        "meta_mean_motion": 15.39585183,
        "meta_eccentricity": 0.00016824,
        "meta_inclination": 53.1608,
        "meta_ra_of_asc_node": 296.5969,
        "meta_arg_of_pericenter": 111.8726,
        "meta_mean_anomaly": 113.9863,
        "meta_ephemeris_type": 0,
        "meta_classification_type": "U",
        "meta_norad_cat_id": 66388,
        "meta_element_set_no": 999,
        "meta_rev_at_epoch": 540,
        "meta_bstar": 0.0013134795,
        "meta_mean_motion_dot": 0.00052441,
        "meta_mean_motion_ddot": 0,
        "tle_line1": "1 66388U 25257J   25339.91670139  .00052441  00000+0  13135-2 0  9990",
        "tle_line2": "2 66388  53.1608 296.5969 0001682 111.8726 113.9863 15.39585183  5403"
      },
      "geometry": {
        "type": "Point",
        "coordinates": [
          37.263422847328656,
          52.38959982493154
        ]
      }
    }
  ]
}